{"type": "FeatureCollection", "features": [ {"type": "Feature", "properties": {"norad_id": 33492, "name": "GOSAT (IBUKI)", "group": "resource", "lat": 66.09824783475555, "lon": -59.099799878706975, "alt_km": 661.8126622131067, "timestamp": "2025-12-19T16:54:43.907710+00:00", "meta": {"OBJECT_NAME": "GOSAT (IBUKI)", "OBJECT_ID": "2009-002A", "EPOCH": "2025-12-19T04:56:48.129504", "MEAN_MOTION": 14.67537344, "ECCENTRICITY": 9.915e-05, "INCLINATION": 98.0771, "RA_OF_ASC_NODE": 101.7196, "ARG_OF_PERICENTER": 100.0781, "MEAN_ANOMALY": 260.0536, "EPHEMERIS_TYPE": 0, "CLASSIFICATION_TYPE": "U", "NORAD_CAT_ID": 33492, "ELEMENT_SET_NO": 999, "REV_AT_EPOCH": 90506, "BSTAR": 0.00011356137, "MEAN_MOTION_DOT": 5.96e-06, "MEAN_MOTION_DDOT": 0}, "tle": {"line1": "1 33492U 09002A   25353.20611261  .00000596  00000+0  11356-3 0  9997", "line2": "2 33492  98.0771 101.7196 0000991 100.0781 260.0536 14.67537344905062"}}, "geometry": {"type": "Point", "coordinates": [-59.099799878706975, 66.09824783475555]}}, {"type": "Feature", "properties": {"norad_id": 35681, "name": "DEIMOS-1", "group": "resource", "lat": 15.48545787315125, "lon": 151.83063143464756, "alt_km": 644.9403639478496, "timestamp": "2025-12-19T16:54:43.907722+00:00", "meta": {"OBJECT_NAME": "DEIMOS-1", "OBJECT_ID": "2009-041A", "EPOCH": "2025-12-19T07:04:21.552960", "MEAN_MOTION": 14.74962922, "ECCENTRICITY": 0.00026177, "INCLINATION": 97.7142, "RA_OF_ASC_NODE": 153.5921, "ARG_OF_PERICENTER": 69.3038, "MEAN_ANOMALY": 290.8452, "EPHEMERIS_TYPE": 0, "CLASSIFICATION_TYPE": "U", "NORAD_CAT_ID": 35681, "ELEMENT_SET_NO": 999, "REV_AT_EPOCH": 88036, "BSTAR": 0.00011016049, "MEAN_MOTION_DOT": 6.93e-06, "MEAN_MOTION_DDOT": 0}, "tle": {"line1": "1 35681U 09041A   25353.29469390  .00000693  00000+0  11016-3 0  9996", "line2": "2 35681  97.7142 153.5921 0002617  69.3038 290.8452 14.74962922880367"}}, "geometry": {"type": "Point", "coordinates": [151.83063143464756, 15.48545787315125]}}, {"type": "Feature", "properties": {"norad_id": 35682, "name": "DUBAISAT-1", "group": "resource", "lat": -57.00088616296206, "lon": 136.75677176522737, "alt_km": 647.0661273690248, "timestamp": "2025-12-19T16:54:43.907733+00:00", "meta": {"OBJECT_NAME": "DUBAISAT-1", "OBJECT_ID": "2009-041B", "EPOCH": "2025-12-19T07:24:09.937440", "MEAN_MOTION": 14.7462099, "ECCENTRICITY": 0.000929, "INCLINATION": 97.9797, "RA_OF_ASC_NODE": 123.8917, "ARG_OF_PERICENTER": 290.9964, "MEAN_ANOMALY": 69.025, "EPHEMERIS_TYPE": 0, "CLASSIFICATION_TYPE": "U", "NORAD_CAT_ID": 35682, "ELEMENT_SET_NO": 999, "REV_AT_EPOCH": 87858, "BSTAR": 0.00014588268, "MEAN_MOTION_DOT": 9.23e-06, "MEAN_MOTION_DDOT": 0}, "tle": {"line1": "1 35682U 09041B   25353.30844835  .00000923  00000+0  14588-3 0  9993", "line2": "2 35682  97.9797 123.8917 0009290 290.9964  69.0250 14.74620990878584"}}, "geometry": {"type": "Point", "coordinates": [136.75677176522737, -57.00088616296206]}}, {"type": "Feature", "properties": {"norad_id": 35931, "name": "OCEANSAT-2", "group": "resource", "lat": 41.55090554934376, "lon": -13.763571911673735, "alt_km": 880.4535513363671, "timestamp": "2025-12-19T16:54:43.907745+00:00", "meta": {"OBJECT_NAME": "OCEANSAT-2", "OBJECT_ID": "2009-051A", "EPOCH": "2025-12-19T06:25:05.540736", "MEAN_MOTION": 13.99623337, "ECCENTRICITY": 0.00160513, "INCLINATION": 98.2217, "RA_OF_ASC_NODE": 353.2058, "ARG_OF_PERICENTER": 27.9523, "MEAN_ANOMALY": 332.2503, "EPHEMERIS_TYPE": 0, "CLASSIFICATION_TYPE": "U", "NORAD_CAT_ID": 35931, "ELEMENT_SET_NO": 999, "REV_AT_EPOCH": 85416, "BSTAR": -6.3176686e-05, "MEAN_MOTION_DOT": -1.3e-06, "MEAN_MOTION_DDOT": 0}, "tle": {"line1": "1 35931U 09051A   25353.26742524 -.00000130  00000+0 -63177-4 0  9999", "line2": "2 35931  98.2217 353.2058 0016051  27.9523 332.2503 13.99623337854167"}}, "geometry": {"type": "Point", "coordinates": [-13.763571911673735, 41.55090554934376]}}, {"type": "Feature", "properties": {"norad_id": 35946, "name": "WORLDVIEW-2 (WV-2)", "group": "resource", "lat": 37.02014203893896, "lon": 58.23526335502795, "alt_km": 759.9291271446618, "timestamp": "2025-12-19T16:54:43.907756+00:00", "meta": {"OBJECT_NAME": "WORLDVIEW-2 (WV-2)", "OBJECT_ID": "2009-055A", "EPOCH": "2025-12-19T06:43:00.859584", "MEAN_MOTION": 14.37726721, "ECCENTRICITY": 0.0004968, "INCLINATION": 98.4782, "RA_OF_ASC_NODE": 64.2747, "ARG_OF_PERICENTER": 54.6555, "MEAN_ANOMALY": 305.5095, "EPHEMERIS_TYPE": 0, "CLASSIFICATION_TYPE": "U", "NORAD_CAT_ID": 35946, "ELEMENT_SET_NO": 999, "REV_AT_EPOCH": 84979, "BSTAR": 5.6427092e-05, "MEAN_MOTION_DOT": 1.26e-06, "MEAN_MOTION_DDOT": 0}, "tle": {"line1": "1 35946U 09055A   25353.27987106  .00000126  00000+0  56427-4 0  9990", "line2": "2 35946  98.4782  64.2747 0004968  54.6555 305.5095 14.37726721849798"}}, "geometry": {"type": "Point", "coordinates": [58.23526335502795, 37.02014203893896]}}, {"type": "Feature", "properties": {"norad_id": 36036, "name": "SMOS", "group": "resource", "lat": 55.40672812087749, "lon": 11.078797389879048, "alt_km": 753.479938106595, "timestamp": "2025-12-19T16:54:43.907766+00:00", "meta": {"OBJECT_NAME": "SMOS", "OBJECT_ID": "2009-059A", "EPOCH": "2025-12-19T02:59:48.263424", "MEAN_MOTION": 14.39746755, "ECCENTRICITY": 0.00010872, "INCLINATION": 98.438, "RA_OF_ASC_NODE": 178.0787, "ARG_OF_PERICENTER": 81.3458, "MEAN_ANOMALY": 278.7854, "EPHEMERIS_TYPE": 0, "CLASSIFICATION_TYPE": "U", "NORAD_CAT_ID": 36036, "ELEMENT_SET_NO": 999, "REV_AT_EPOCH": 84754, "BSTAR": 0.00011174381, "MEAN_MOTION_DOT": 3.07e-06, "MEAN_MOTION_DDOT": 0}, "tle": {"line1": "1 36036U 09059A   25353.12486416  .00000307  00000+0  11174-3 0  9997", "line2": "2 36036  98.4380 178.0787 0001087  81.3458 278.7854 14.39746755847545"}}, "geometry": {"type": "Point", "coordinates": [11.078797389879048, 55.40672812087749]}}, {"type": "Feature", "properties": {"norad_id": 36110, "name": "YAOGAN-7", "group": "resource", "lat": 0.49948451812242456, "lon": 55.507034494761214, "alt_km": 636.0346434006369, "timestamp": "2025-12-19T16:54:43.907777+00:00", "meta": {"OBJECT_NAME": "YAOGAN-7", "OBJECT_ID": "2009-069A", "EPOCH": "2025-12-19T04:43:30.238464", "MEAN_MOTION": 14.77741395, "ECCENTRICITY": 0.00233514, "INCLINATION": 98.0297, "RA_OF_ASC_NODE": 234.9307, "ARG_OF_PERICENTER": 259.2514, "MEAN_ANOMALY": 100.6067, "EPHEMERIS_TYPE": 0, "CLASSIFICATION_TYPE": "U", "NORAD_CAT_ID": 36110, "ELEMENT_SET_NO": 999, "REV_AT_EPOCH": 86304, "BSTAR": 7.0029808e-05, "MEAN_MOTION_DOT": 4.51e-06, "MEAN_MOTION_DDOT": 0}, "tle": {"line1": "1 36110U 09069A   25353.19687776  .00000451  00000+0  70030-4 0  9997", "line2": "2 36110  98.0297 234.9307 0023351 259.2514 100.6067 14.77741395863047"}}, "geometry": {"type": "Point", "coordinates": [55.507034494761214, 0.49948451812242456]}}, {"type": "Feature", "properties": {"norad_id": 36605, "name": "TANDEM-X", "group": "resource", "lat": 21.525400388598115, "lon": -3.973032266731564, "alt_km": 507.5738354232626, "timestamp": "2025-12-19T16:54:43.907788+00:00", "meta": {"OBJECT_NAME": "TANDEM-X", "OBJECT_ID": "2010-030A", "EPOCH": "2025-12-18T13:56:33.642816", "MEAN_MOTION": 15.1915139, "ECCENTRICITY": 0.00018106, "INCLINATION": 97.4444, "RA_OF_ASC_NODE": 357.8759, "ARG_OF_PERICENTER": 79.4695, "MEAN_ANOMALY": 280.6743, "EPHEMERIS_TYPE": 0, "CLASSIFICATION_TYPE": "U", "NORAD_CAT_ID": 36605, "ELEMENT_SET_NO": 999, "REV_AT_EPOCH": 85922, "BSTAR": 3.9209338e-05, "MEAN_MOTION_DOT": 7.56e-06, "MEAN_MOTION_DDOT": 0}, "tle": {"line1": "1 36605U 10030A   25352.58094494  .00000756  00000+0  39209-4 0  9998", "line2": "2 36605  97.4444 357.8759 0001810  79.4695 280.6743 15.19151390859229"}}, "geometry": {"type": "Point", "coordinates": [-3.973032266731564, 21.525400388598115]}}, {"type": "Feature", "properties": {"norad_id": 36795, "name": "CARTOSAT-2B", "group": "resource", "lat": 47.45305952062005, "lon": -128.91877959628974, "alt_km": 626.94076392438, "timestamp": "2025-12-19T16:54:43.907798+00:00", "meta": {"OBJECT_NAME": "CARTOSAT-2B", "OBJECT_ID": "2010-035A", "EPOCH": "2025-12-19T06:34:29.922816", "MEAN_MOTION": 14.78733203, "ECCENTRICITY": 0.00128638, "INCLINATION": 97.7849, "RA_OF_ASC_NODE": 42.0925, "ARG_OF_PERICENTER": 57.2879, "MEAN_ANOMALY": 302.9571, "EPHEMERIS_TYPE": 0, "CLASSIFICATION_TYPE": "U", "NORAD_CAT_ID": 36795, "ELEMENT_SET_NO": 999, "REV_AT_EPOCH": 83326, "BSTAR": 5.5250266e-05, "MEAN_MOTION_DOT": 3.56e-06, "MEAN_MOTION_DDOT": 0}, "tle": {"line1": "1 36795U 10035A   25353.27395744  .00000356  00000+0  55250-4 0  9992", "line2": "2 36795  97.7849  42.0925 0012863  57.2879 302.9571 14.78733203833263"}}, "geometry": {"type": "Point", "coordinates": [-128.91877959628974, 47.45305952062005]}}, {"type": "Feature", "properties": {"norad_id": 36834, "name": "YAOGAN-10", "group": "resource", "lat": -0.6158132021721214, "lon": 13.559549525881277, "alt_km": 617.6565362920692, "timestamp": "2025-12-19T16:54:43.907809+00:00", "meta": {"OBJECT_NAME": "YAOGAN-10", "OBJECT_ID": "2010-038A", "EPOCH": "2025-12-19T07:47:37.777920", "MEAN_MOTION": 14.84634478, "ECCENTRICITY": 0.00014541, "INCLINATION": 97.9137, "RA_OF_ASC_NODE": 13.0968, "ARG_OF_PERICENTER": 80.6289, "MEAN_ANOMALY": 49.5106, "EPHEMERIS_TYPE": 0, "CLASSIFICATION_TYPE": "U", "NORAD_CAT_ID": 36834, "ELEMENT_SET_NO": 999, "REV_AT_EPOCH": 83051, "BSTAR": 0.00027077204, "MEAN_MOTION_DOT": 2.235e-05, "MEAN_MOTION_DDOT": 0}, "tle": {"line1": "1 36834U 10038A   25353.32474280  .00002235  00000+0  27077-3 0  9991", "line2": "2 36834  97.9137  13.0968 0001454  80.6289  49.5106 14.84634478830517"}}, "geometry": {"type": "Point", "coordinates": [13.559549525881277, -0.6158132021721214]}}]}